[{"OBJECT_NAME":"GAOFEN-11 05","OBJECT_ID":"2024-130A","EPOCH":"2026-03-09T22:37:47.360064","MEAN_MOTION":15.23784242,"ECCENTRICITY":0.00077059,"INCLINATION":97.4051,"RA_OF_ASC_NODE":148.5891,"ARG_OF_PERICENTER":100.8064,"MEAN_ANOMALY":259.4041,"EPHEMERIS_TYPE":0,"CLASSIFICATION_TYPE":"U","NORAD_CAT_ID":60249,"ELEMENT_SET_NO":999,"REV_AT_EPOCH":7035,"BSTAR":0.00034401659,"MEAN_MOTION_DOT":8.217e-5,"MEAN_MOTION_DDOT":0},{"OBJECT_NAME":"SITRO-TD-3","OBJECT_ID":"2025-313Y","EPOCH":"2026-03-09T22:34:33.372192","MEAN_MOTION":15.21559953,"ECCENTRICITY":0.00145757,"INCLINATION":97.4011,"RA_OF_ASC_NODE":145.2018,"ARG_OF_PERICENTER":358.2913,"MEAN_ANOMALY":1.827,"EPHEMERIS_TYPE":0,"CLASSIFICATION_TYPE":"U","NORAD_CAT_ID":67270,"ELEMENT_SET_NO":999,"REV_AT_EPOCH":1085,"BSTAR":0.00053243574,"MEAN_MOTION_DOT":0.00011975,"MEAN_MOTION_DDOT":0}]
